[{"OBJECT_NAME":"STARLINK-36800","OBJECT_ID":"2026-032A","EPOCH":"2026-03-15T11:23:21.399936","MEAN_MOTION":15.75308542,"ECCENTRICITY":0.00017843,"INCLINATION":97.2826,"RA_OF_ASC_NODE":261.2413,"ARG_OF_PERICENTER":100.1602,"MEAN_ANOMALY":259.9865,"EPHEMERIS_TYPE":0,"CLASSIFICATION_TYPE":"U","NORAD_CAT_ID":67797,"ELEMENT_SET_NO":999,"REV_AT_EPOCH":569,"BSTAR":0.0030461286,"MEAN_MOTION_DOT":0.00483378,"MEAN_MOTION_DDOT":0},{"OBJECT_NAME":"STARLINK-36798","OBJECT_ID":"2026-032B","EPOCH":"2026-03-15T23:11:48.918624","MEAN_MOTION":15.75369771,"ECCENTRICITY":0.00021979,"INCLINATION":97.2827,"RA_OF_ASC_NODE":261.7969,"ARG_OF_PERICENTER":45.0798,"MEAN_ANOMALY":315.0645,"EPHEMERIS_TYPE":0,"CLASSIFICATION_TYPE":"U","NORAD_CAT_ID":67798,"ELEMENT_SET_NO":999,"REV_AT_EPOCH":577,"BSTAR":0.0028035884,"MEAN_MOTION_DOT":0.00443964,"MEAN_MOTION_DDOT":0},{"OBJECT_NAME":"STARLINK-36804","OBJECT_ID":"2026-032C","EPOCH":"2026-03-15T23:32:38.963328","MEAN_MOTION":15.75218428,"ECCENTRICITY":0.00031908,"INCLINATION":97.2827,"RA_OF_ASC_NODE":261.7764,"ARG_OF_PERICENTER":68.0637,"MEAN_ANOMALY":292.0967,"EPHEMERIS_TYPE":0,"CLASSIFICATION_TYPE":"U","NORAD_CAT_ID":67799,"ELEMENT_SET_NO":999,"REV_AT_EPOCH":577,"BSTAR":0.0010521938,"MEAN_MOTION_DOT":0.00160008,"MEAN_MOTION_DDOT":0},{"OBJECT_NAME":"STARLINK-36354","OBJECT_ID":"2026-032D","EPOCH":"2026-03-15T18:42:27.301824","MEAN_MOTION":15.75261718,"ECCENTRICITY":0.00019292,"INCLINATION":97.283,"RA_OF_ASC_NODE":261.5933,"ARG_OF_PERICENTER":78.2298,"MEAN_ANOMALY":281.9183,"EPHEMERIS_TYPE":0,"CLASSIFICATION_TYPE":"U","NORAD_CAT_ID":67800,"ELEMENT_SET_NO":999,"REV_AT_EPOCH":574,"BSTAR":0.0015247431,"MEAN_MOTION_DOT":0.00234376,"MEAN_MOTION_DDOT":0},{"OBJECT_NAME":"STARLINK-36773","OBJECT_ID":"2026-032E","EPOCH":"2026-03-15T23:28:04.208736","MEAN_MOTION":15.75265044,"ECCENTRICITY":0.00018058,"INCLINATION":97.2832,"RA_OF_ASC_NODE":261.7808,"ARG_OF_PERICENTER":55.9637,"MEAN_ANOMALY":304.1799,"EPHEMERIS_TYPE":0,"CLASSIFICATION_TYPE":"U","NORAD_CAT_ID":67801,"ELEMENT_SET_NO":999,"REV_AT_EPOCH":577,"BSTAR":0.001687923,"MEAN_MOTION_DOT":0.00260306,"MEAN_MOTION_DDOT":0},{"OBJECT_NAME":"STARLINK-36739","OBJECT_ID":"2026-032F","EPOCH":"2026-03-15T23:01:38.321184","MEAN_MOTION":15.75298087,"ECCENTRICITY":1.302e-5,"INCLINATION":97.2833,"RA_OF_ASC_NODE":261.8064,"ARG_OF_PERICENTER":29.3824,"MEAN_ANOMALY":330.7449,"EPHEMERIS_TYPE":0,"CLASSIFICATION_TYPE":"U","NORAD_CAT_ID":67802,"ELEMENT_SET_NO":999,"REV_AT_EPOCH":577,"BSTAR":0.0019414824,"MEAN_MOTION_DOT":0.00301339,"MEAN_MOTION_DDOT":0},{"OBJECT_NAME":"STARLINK-36768","OBJECT_ID":"2026-032G","EPOCH":"2026-03-15T23:19:25.751712","MEAN_MOTION":15.75265054,"ECCENTRICITY":9.892e-5,"INCLINATION":97.2829,"RA_OF_ASC_NODE":261.7886,"ARG_OF_PERICENTER":50.8547,"MEAN_ANOMALY":309.2806,"EPHEMERIS_TYPE":0,"CLASSIFICATION_TYPE":"U","NORAD_CAT_ID":67803,"ELEMENT_SET_NO":999,"REV_AT_EPOCH":577,"BSTAR":0.0015998517,"MEAN_MOTION_DOT":0.00246309,"MEAN_MOTION_DDOT":0},{"OBJECT_NAME":"STARLINK-36792","OBJECT_ID":"2026-032H","EPOCH":"2026-03-15T23:22:58.936800","MEAN_MOTION":15.75274567,"ECCENTRICITY":5.507e-5,"INCLINATION":97.283,"RA_OF_ASC_NODE":261.7851,"ARG_OF_PERICENTER":20.1622,"MEAN_ANOMALY":339.9664,"EPHEMERIS_TYPE":0,"CLASSIFICATION_TYPE":"U","NORAD_CAT_ID":67804,"ELEMENT_SET_NO":999,"REV_AT_EPOCH":577,"BSTAR":0.0017127946,"MEAN_MOTION_DOT":0.00264386,"MEAN_MOTION_DDOT":0},{"OBJECT_NAME":"STARLINK-36782","OBJECT_ID":"2026-032J","EPOCH":"2026-03-15T18:12:58.683456","MEAN_MOTION":15.75296999,"ECCENTRICITY":0.00025403,"INCLINATION":97.2839,"RA_OF_ASC_NODE":261.6188,"ARG_OF_PERICENTER":101.4777,"MEAN_ANOMALY":258.6774,"EPHEMERIS_TYPE":0,"CLASSIFICATION_TYPE":"U","NORAD_CAT_ID":67805,"ELEMENT_SET_NO":999,"REV_AT_EPOCH":574,"BSTAR":0.0018061441,"MEAN_MOTION_DOT":0.00279576,"MEAN_MOTION_DDOT":0},{"OBJECT_NAME":"STARLINK-36389","OBJECT_ID":"2026-032K","EPOCH":"2026-03-15T18:32:17.550240","MEAN_MOTION":15.7526202,"ECCENTRICITY":0.00023661,"INCLINATION":97.2826,"RA_OF_ASC_NODE":261.5992,"ARG_OF_PERICENTER":78.2395,"MEAN_ANOMALY":281.9135,"EPHEMERIS_TYPE":0,"CLASSIFICATION_TYPE":"U","NORAD_CAT_ID":67806,"ELEMENT_SET_NO":999,"REV_AT_EPOCH":574,"BSTAR":0.0014077179,"MEAN_MOTION_DOT":0.00215916,"MEAN_MOTION_DDOT":0},{"OBJECT_NAME":"STARLINK-36382","OBJECT_ID":"2026-032L","EPOCH":"2026-03-15T23:03:40.312800","MEAN_MOTION":15.75269162,"ECCENTRICITY":8.844e-5,"INCLINATION":97.2828,"RA_OF_ASC_NODE":261.8014,"ARG_OF_PERICENTER":45.6221,"MEAN_ANOMALY":314.5116,"EPHEMERIS_TYPE":0,"CLASSIFICATION_TYPE":"U","NORAD_CAT_ID":67807,"ELEMENT_SET_NO":999,"REV_AT_EPOCH":577,"BSTAR":0.0012105892,"MEAN_MOTION_DOT":0.00185035,"MEAN_MOTION_DDOT":0},{"OBJECT_NAME":"STARLINK-36811","OBJECT_ID":"2026-032M","EPOCH":"2026-03-15T18:15:00.633600","MEAN_MOTION":15.75302035,"ECCENTRICITY":0.00023984,"INCLINATION":97.2839,"RA_OF_ASC_NODE":261.6167,"ARG_OF_PERICENTER":102.2951,"MEAN_ANOMALY":257.8583,"EPHEMERIS_TYPE":0,"CLASSIFICATION_TYPE":"U","NORAD_CAT_ID":67808,"ELEMENT_SET_NO":999,"REV_AT_EPOCH":574,"BSTAR":0.0018740319,"MEAN_MOTION_DOT":0.00290525,"MEAN_MOTION_DDOT":0},{"OBJECT_NAME":"STARLINK-36795","OBJECT_ID":"2026-032N","EPOCH":"2026-03-15T18:39:24.369696","MEAN_MOTION":15.75252048,"ECCENTRICITY":0.00019123,"INCLINATION":97.283,"RA_OF_ASC_NODE":261.5921,"ARG_OF_PERICENTER":84.2507,"MEAN_ANOMALY":275.8976,"EPHEMERIS_TYPE":0,"CLASSIFICATION_TYPE":"U","NORAD_CAT_ID":67809,"ELEMENT_SET_NO":999,"REV_AT_EPOCH":574,"BSTAR":0.0012529709,"MEAN_MOTION_DOT":0.00191527,"MEAN_MOTION_DDOT":0},{"OBJECT_NAME":"STARLINK-36807","OBJECT_ID":"2026-032P","EPOCH":"2026-03-15T18:16:31.313856","MEAN_MOTION":15.75327631,"ECCENTRICITY":0.00024897,"INCLINATION":97.2841,"RA_OF_ASC_NODE":261.6138,"ARG_OF_PERICENTER":98.7236,"MEAN_ANOMALY":261.4311,"EPHEMERIS_TYPE":0,"CLASSIFICATION_TYPE":"U","NORAD_CAT_ID":67810,"ELEMENT_SET_NO":999,"REV_AT_EPOCH":574,"BSTAR":0.0017672268,"MEAN_MOTION_DOT":0.00273722,"MEAN_MOTION_DDOT":0},{"OBJECT_NAME":"STARLINK-36733","OBJECT_ID":"2026-032Q","EPOCH":"2026-03-15T11:56:54.040416","MEAN_MOTION":15.7519264,"ECCENTRICITY":0.00016325,"INCLINATION":97.2837,"RA_OF_ASC_NODE":261.36,"ARG_OF_PERICENTER":74.418,"MEAN_ANOMALY":285.7265,"EPHEMERIS_TYPE":0,"CLASSIFICATION_TYPE":"U","NORAD_CAT_ID":67811,"ELEMENT_SET_NO":999,"REV_AT_EPOCH":570,"BSTAR":0.00084484203,"MEAN_MOTION_DOT":0.00127802,"MEAN_MOTION_DDOT":0},{"OBJECT_NAME":"STARLINK-36377","OBJECT_ID":"2026-032R","EPOCH":"2026-03-15T11:53:20.534784","MEAN_MOTION":15.75220621,"ECCENTRICITY":0.00015175,"INCLINATION":97.2833,"RA_OF_ASC_NODE":261.3635,"ARG_OF_PERICENTER":54.8572,"MEAN_ANOMALY":305.2835,"EPHEMERIS_TYPE":0,"CLASSIFICATION_TYPE":"U","NORAD_CAT_ID":67812,"ELEMENT_SET_NO":999,"REV_AT_EPOCH":570,"BSTAR":0.0011921772,"MEAN_MOTION_DOT":0.00181768,"MEAN_MOTION_DDOT":0}]
